CCSDS_OMM_VERS = 2.0
CREATION_DATE  = 
ORIGINATOR     = 

OBJECT_NAME    = DELTA 2 R/B(1)
OBJECT_ID      = 1990-008B
CENTER_NAME    = EARTH
REF_FRAME      = TEME
TIME_SYSTEM    = UTC
MEAN_ELEMENT_THEORY = SGP/SGP4

EPOCH          = 2026-03-03T12:49:11.730720
MEAN_MOTION    = 15.55022686
ECCENTRICITY   = .00868071
INCLINATION    = 35.6032
RA_OF_ASC_NODE = 215.2230
ARG_OF_PERICENTER = 201.7387
MEAN_ANOMALY   = 157.9652

EPHEMERIS_TYPE = 0
CLASSIFICATION_TYPE = U
NORAD_CAT_ID   = 20453
ELEMENT_SET_NO = 999
REV_AT_EPOCH   = 92517
BSTAR          = .1011995E-2
MEAN_MOTION_DOT = .83958E-3
MEAN_MOTION_DDOT = 0

CCSDS_OMM_VERS = 2.0
CREATION_DATE  = 
ORIGINATOR     = 

OBJECT_NAME    = COSMOS 2058
OBJECT_ID      = 1990-010A
CENTER_NAME    = EARTH
REF_FRAME      = TEME
TIME_SYSTEM    = UTC
MEAN_ELEMENT_THEORY = SGP/SGP4

EPOCH          = 2026-03-03T14:57:06.293664
MEAN_MOTION    = 15.11255342
ECCENTRICITY   = .00098113
INCLINATION    = 82.4667
RA_OF_ASC_NODE = 53.4045
ARG_OF_PERICENTER = 3.4030
MEAN_ANOMALY   = 356.7265

EPHEMERIS_TYPE = 0
CLASSIFICATION_TYPE = U
NORAD_CAT_ID   = 20465
ELEMENT_SET_NO = 999
REV_AT_EPOCH   = 94132
BSTAR          = .33412015E-3
MEAN_MOTION_DOT = .5652E-4
MEAN_MOTION_DDOT = 0

CCSDS_OMM_VERS = 2.0
CREATION_DATE  = 
ORIGINATOR     = 

OBJECT_NAME    = SL-14 R/B
OBJECT_ID      = 1990-010B
CENTER_NAME    = EARTH
REF_FRAME      = TEME
TIME_SYSTEM    = UTC
MEAN_ELEMENT_THEORY = SGP/SGP4

EPOCH          = 2026-03-03T14:48:02.543904
MEAN_MOTION    = 14.83562796
ECCENTRICITY   = .00189256
INCLINATION    = 82.4991
RA_OF_ASC_NODE = 273.0948
ARG_OF_PERICENTER = 323.5582
MEAN_ANOMALY   = 36.4343

EPHEMERIS_TYPE = 0
CLASSIFICATION_TYPE = U
NORAD_CAT_ID   = 20466
ELEMENT_SET_NO = 999
REV_AT_EPOCH   = 92758
BSTAR          = .59967418E-4
MEAN_MOTION_DOT = .519E-5
MEAN_MOTION_DDOT = 0

CCSDS_OMM_VERS = 2.0
CREATION_DATE  = 
ORIGINATOR     = 

OBJECT_NAME    = SL-14 R/B
OBJECT_ID      = 1990-018B
CENTER_NAME    = EARTH
REF_FRAME      = TEME
TIME_SYSTEM    = UTC
MEAN_ELEMENT_THEORY = SGP/SGP4

EPOCH          = 2026-03-03T13:28:06.173184
MEAN_MOTION    = 14.82136954
ECCENTRICITY   = .00175917
INCLINATION    = 82.5192
RA_OF_ASC_NODE = 228.8183
ARG_OF_PERICENTER = 110.6509
MEAN_ANOMALY   = 249.6593

EPHEMERIS_TYPE = 0
CLASSIFICATION_TYPE = U
NORAD_CAT_ID   = 20511
ELEMENT_SET_NO = 999
REV_AT_EPOCH   = 92167
BSTAR          = .83407199E-4
MEAN_MOTION_DOT = .689E-5
MEAN_MOTION_DDOT = 0

CCSDS_OMM_VERS = 2.0
CREATION_DATE  = 
ORIGINATOR     = 

OBJECT_NAME    = HST
OBJECT_ID      = 1990-037B
CENTER_NAME    = EARTH
REF_FRAME      = TEME
TIME_SYSTEM    = UTC
MEAN_ELEMENT_THEORY = SGP/SGP4

EPOCH          = 2026-03-03T10:01:15.222720
MEAN_MOTION    = 15.29363841
ECCENTRICITY   = .00016951
INCLINATION    = 28.4702
RA_OF_ASC_NODE = 82.7831
ARG_OF_PERICENTER = 63.3001
MEAN_ANOMALY   = 296.7768

EPHEMERIS_TYPE = 0
CLASSIFICATION_TYPE = U
NORAD_CAT_ID   = 20580
ELEMENT_SET_NO = 999
REV_AT_EPOCH   = 77235
BSTAR          = .29940291E-3
MEAN_MOTION_DOT = .9009E-4
MEAN_MOTION_DDOT = 0

CCSDS_OMM_VERS = 2.0
CREATION_DATE  = 
ORIGINATOR     = 

OBJECT_NAME    = SL-16 R/B
OBJECT_ID      = 1990-046B
CENTER_NAME    = EARTH
REF_FRAME      = TEME
TIME_SYSTEM    = UTC
MEAN_ELEMENT_THEORY = SGP/SGP4

EPOCH          = 2026-03-03T02:56:54.846528
MEAN_MOTION    = 14.15014698
ECCENTRICITY   = .0016124
INCLINATION    = 71.0003
RA_OF_ASC_NODE = 311.7062
ARG_OF_PERICENTER = 308.4467
MEAN_ANOMALY   = 51.5208

EPHEMERIS_TYPE = 0
CLASSIFICATION_TYPE = U
NORAD_CAT_ID   = 20625
ELEMENT_SET_NO = 999
REV_AT_EPOCH   = 84746
BSTAR          = -.64097728E-4
MEAN_MOTION_DOT = -.172E-5
MEAN_MOTION_DDOT = 0

CCSDS_OMM_VERS = 2.0
CREATION_DATE  = 
ORIGINATOR     = 

OBJECT_NAME    = COSMOS 2084
OBJECT_ID      = 1990-055A
CENTER_NAME    = EARTH
REF_FRAME      = TEME
TIME_SYSTEM    = UTC
MEAN_ELEMENT_THEORY = SGP/SGP4

EPOCH          = 2026-03-03T05:07:04.397376
MEAN_MOTION    = 15.05602026
ECCENTRICITY   = .00181087
INCLINATION    = 62.7926
RA_OF_ASC_NODE = 357.6650
ARG_OF_PERICENTER = 188.5844
MEAN_ANOMALY   = 171.4949

EPHEMERIS_TYPE = 0
CLASSIFICATION_TYPE = U
NORAD_CAT_ID   = 20663
ELEMENT_SET_NO = 999
REV_AT_EPOCH   = 93534
BSTAR          = .2616443E-3
MEAN_MOTION_DOT = .3603E-4
MEAN_MOTION_DDOT = 0

CCSDS_OMM_VERS = 2.0
CREATION_DATE  = 
ORIGINATOR     = 

OBJECT_NAME    = SL-6 R/B(2)
OBJECT_ID      = 1990-055D
CENTER_NAME    = EARTH
REF_FRAME      = TEME
TIME_SYSTEM    = UTC
MEAN_ELEMENT_THEORY = SGP/SGP4

EPOCH          = 2026-03-03T15:39:44.224416
MEAN_MOTION    = 15.03560131
ECCENTRICITY   = .00238206
INCLINATION    = 62.7818
RA_OF_ASC_NODE = 274.3815
ARG_OF_PERICENTER = 345.5387
MEAN_ANOMALY   = 14.5028

EPHEMERIS_TYPE = 0
CLASSIFICATION_TYPE = U
NORAD_CAT_ID   = 20666
ELEMENT_SET_NO = 999
REV_AT_EPOCH   = 93728
BSTAR          = .20502112E-3
MEAN_MOTION_DOT = .2629E-4
MEAN_MOTION_DDOT = 0

CCSDS_OMM_VERS = 2.0
CREATION_DATE  = 
ORIGINATOR     = 

OBJECT_NAME    = SL-8 R/B
OBJECT_ID      = 1990-078B
CENTER_NAME    = EARTH
REF_FRAME      = TEME
TIME_SYSTEM    = UTC
MEAN_ELEMENT_THEORY = SGP/SGP4

EPOCH          = 2026-03-03T12:39:35.388288
MEAN_MOTION    = 14.88816306
ECCENTRICITY   = .03637419
INCLINATION    = 82.8989
RA_OF_ASC_NODE = 256.8532
ARG_OF_PERICENTER = 34.7004
MEAN_ANOMALY   = 327.7365

EPHEMERIS_TYPE = 0
CLASSIFICATION_TYPE = U
NORAD_CAT_ID   = 20775
ELEMENT_SET_NO = 999
REV_AT_EPOCH   = 80838
BSTAR          = .54752317E-3
MEAN_MOTION_DOT = .18627E-3
MEAN_MOTION_DDOT = 0

CCSDS_OMM_VERS = 2.0
CREATION_DATE  = 
ORIGINATOR     = 

OBJECT_NAME    = SL-8 R/B
OBJECT_ID      = 1991-006B
CENTER_NAME    = EARTH
REF_FRAME      = TEME
TIME_SYSTEM    = UTC
MEAN_ELEMENT_THEORY = SGP/SGP4

EPOCH          = 2026-03-03T09:03:33.225696
MEAN_MOTION    = 13.77493385
ECCENTRICITY   = .00234013
INCLINATION    = 82.9464
RA_OF_ASC_NODE = 174.7381
ARG_OF_PERICENTER = 55.3462
MEAN_ANOMALY   = 5.2106

EPHEMERIS_TYPE = 0
CLASSIFICATION_TYPE = U
NORAD_CAT_ID   = 21088
ELEMENT_SET_NO = 999
REV_AT_EPOCH   = 76320
BSTAR          = .45357986E-4
MEAN_MOTION_DOT = .61E-6
MEAN_MOTION_DDOT = 0

CCSDS_OMM_VERS = 2.0
CREATION_DATE  = 
ORIGINATOR     = 

OBJECT_NAME    = OKEAN-3
OBJECT_ID      = 1991-039A
CENTER_NAME    = EARTH
REF_FRAME      = TEME
TIME_SYSTEM    = UTC
MEAN_ELEMENT_THEORY = SGP/SGP4

EPOCH          = 2026-03-03T07:05:16.098144
MEAN_MOTION    = 15.04748575
ECCENTRICITY   = .00143353
INCLINATION    = 82.5200
RA_OF_ASC_NODE = 343.0367
ARG_OF_PERICENTER = 1.3088
MEAN_ANOMALY   = 358.8173

EPHEMERIS_TYPE = 0
CLASSIFICATION_TYPE = U
NORAD_CAT_ID   = 21397
ELEMENT_SET_NO = 999
REV_AT_EPOCH   = 86407
BSTAR          = .26957646E-3
MEAN_MOTION_DOT = .3834E-4
MEAN_MOTION_DDOT = 0

CCSDS_OMM_VERS = 2.0
CREATION_DATE  = 
ORIGINATOR     = 

OBJECT_NAME    = COSMOS 2151
OBJECT_ID      = 1991-042A
CENTER_NAME    = EARTH
REF_FRAME      = TEME
TIME_SYSTEM    = UTC
MEAN_ELEMENT_THEORY = SGP/SGP4

EPOCH          = 2026-03-03T14:43:04.792224
MEAN_MOTION    = 15.00076828
ECCENTRICITY   = .00141353
INCLINATION    = 82.4930
RA_OF_ASC_NODE = 89.5392
ARG_OF_PERICENTER = 81.6927
MEAN_ANOMALY   = 278.5900

EPHEMERIS_TYPE = 0
CLASSIFICATION_TYPE = U
NORAD_CAT_ID   = 21422
ELEMENT_SET_NO = 999
REV_AT_EPOCH   = 86228
BSTAR          = .1912835E-3
MEAN_MOTION_DOT = .2414E-4
MEAN_MOTION_DDOT = 0

