DELTA 2 R/B(1)          
1 20453U 90008B   26062.53416355  .00083958  00000+0  10120-2 0  9997
2 20453  35.6032 215.2230 0086807 201.7387 157.9652 15.55022686925176
COSMOS 2058             
1 20465U 90010A   26062.62298951  .00005652  00000+0  33412-3 0  9998
2 20465  82.4667  53.4045 0009811   3.4030 356.7265 15.11255342941324
SL-14 R/B               
1 20466U 90010B   26062.61669611  .00000519  00000+0  59967-4 0  9994
2 20466  82.4991 273.0948 0018925 323.5582  36.4343 14.83562796927584
SL-14 R/B               
1 20511U 90018B   26062.56118256  .00000689  00000+0  83407-4 0  9995
2 20511  82.5192 228.8183 0017591 110.6509 249.6593 14.82136954921671
HST                     
1 20580U 90037B   26062.41753730  .00009009  00000+0  29940-3 0  9994
2 20580  28.4702  82.7831 0001695  63.3001 296.7768 15.29363841772354
SL-16 R/B               
1 20625U 90046B   26062.12285702 -.00000172  00000+0 -64098-4 0  9999
2 20625  71.0003 311.7062 0016124 308.4467  51.5208 14.15014698847463
COSMOS 2084             
1 20663U 90055A   26062.21324534  .00003603  00000+0  26164-3 0  9999
2 20663  62.7926 357.6650 0018108 188.5844 171.4949 15.05602026935345
SL-6 R/B(2)             
1 20666U 90055D   26062.65259519  .00002629  00000+0  20502-3 0  9997
2 20666  62.7818 274.3815 0023820 345.5387  14.5028 15.03560131937288
SL-8 R/B                
1 20775U 90078B   26062.52749292  .00018627  00000+0  54752-3 0  9990
2 20775  82.8989 256.8532 0363741  34.7004 327.7365 14.88816306808385
SL-8 R/B                
1 21088U 91006B   26062.37746789  .00000061  00000+0  45358-4 0  9997
2 21088  82.9464 174.7381 0023401  55.3462   5.2106 13.77493385763202
OKEAN-3                 
1 21397U 91039A   26062.29532521  .00003834  00000+0  26958-3 0  9999
2 21397  82.5200 343.0367 0014335   1.3088 358.8173 15.04748575864079
COSMOS 2151             
1 21422U 91042A   26062.61324991  .00002414  00000+0  19128-3 0  9992
2 21422  82.4930  89.5392 0014135  81.6927 278.5900 15.00076828862286
